stk.v.4.3 

BEGIN Ephemeris 
 
NumberOfEphemerisPoints		146 
ScenarioEpoch	    2 Jan 2020 13:11:50.822604597 
InterpolationMethod		Lagrange 
InterpolationOrder		5 
CentralBody				Earth 
CoordinateSystem			TEME 
CoordinateSystemEpoch	  2 Jan 2020 13:11:50.822604597 
DistanceUnit			Kilometers 
 
EphemerisTimePosVel 
 
       0.00000000   -1387.51756797   -7023.12113830       0.04257730  0.461473790 -0.081745427  7.448733774
 END Ephemeris 
